{
  "norad_id": 68670,
  "name": "STARLINK-37298",
  "history": [
    {
      "epoch": "2026-04-22T13:05:02.161824Z",
      "apogee_km": 345.27435238201633,
      "perigee_km": 342.7777410264698,
      "latitude_deg": -2.6279853952400733e-05,
      "longitude_deg": -63.26901666229765,
      "height_km": 347.35079835359187,
      "semi_major_axis_km": 6722.163046704242,
      "eccentricity": 0.0001857,
      "inclination_deg": 97.2837,
      "raan_deg": 343.5952,
      "arg_perigee_deg": 97.3323,
      "mean_anomaly_deg": 262.8153,
      "mean_motion_rev_day": 15.75212679
    }
  ]
}